STARLINK-35398          
1 66017U 25232N   25314.91667824  .00121984  00000+0  30167-2 0  9995
2 66017  53.1597 297.5704 0001375  96.0680 244.6641 15.39562913  4354
STARLINK-35376          
1 66018U 25232P   25314.37661051  .00101297  00000+0  18033-2 0  9995
2 66018  53.1598 299.8480 0001662  75.8513 284.2681 15.49349382  5147
STARLINK-35382          
1 66019U 25232Q   25314.95821299  .00118787  00000+0  21063-2 0  9991
2 66019  53.1592 297.0788 0001530  95.5798 264.5386 15.49378718  5239
STARLINK-35430          
1 66020U 25232R   25315.00003472  .00049856  00000+0  12498-2 0  9997
2 66020  53.1591 297.0750 0001133  93.2589  41.2510 15.39582837  4439
STARLINK-35432          
1 66021U 25232S   25314.91667824  .00123763  00000+0  30592-2 0  9999
2 66021  53.1591 297.5193 0001430 104.2956 262.1871 15.39569204  4355
STARLINK-35340          
1 66022U 25232T   25315.00003472  .00043145  00000+0  10837-2 0  9999
2 66022  53.1596 297.0224 0001346  92.9667  67.2963 15.39586755  4434
STARLINK-35394          
1 66023U 25232U   25315.00003472  .00045526  00000+0  11425-2 0  9999
2 66023  53.1598 296.9708 0001713  99.2263  86.7694 15.39588397  4433
STARLINK-35410          
1 66024U 25232V   25315.00003472 -.01680940  00000+0 -42939-1 0  9991
2 66024  53.1603 296.8741 0001529  92.1733 142.0237 15.42392409  4436
STARLINK-35280          
1 66025U 25232W   25315.00003472  .00052505  00000+0  13154-2 0  9997
2 66025  53.1599 296.9192 0001799  92.9991 118.7562 15.39576372  4378
STARLINK-34812          
1 66026U 25232X   25314.91667824 -.02040726  00000+0 -46314-1 0  9993
2 66026  53.1598 297.2419 0001345  83.3636  61.5741 15.45958641  4375
STARLINK-35341          
1 66027U 25232Y   25314.91667824  .00076722  00000+0  19115-2 0  9995
2 66027  53.1598 297.0516 0001243  95.8719 142.3775 15.39576136  4428
STARLINK-35339          
1 66028U 25232Z   25314.91667824  .00113182  00000+0  28015-2 0  9997
2 66028  53.1594 297.0007 0001634 104.2673 159.6946 15.39578196  4360
