CCSDS_OMM_VERS = 2.0
CREATION_DATE  = 
ORIGINATOR     = 

OBJECT_NAME    = STARLINK-35398
OBJECT_ID      = 2025-232N
CENTER_NAME    = EARTH
REF_FRAME      = TEME
TIME_SYSTEM    = UTC
MEAN_ELEMENT_THEORY = SGP/SGP4

EPOCH          = 2025-11-10T22:00:00.999936
MEAN_MOTION    = 15.39562913
ECCENTRICITY   = .0001375
INCLINATION    = 53.1597
RA_OF_ASC_NODE = 297.5704
ARG_OF_PERICENTER = 96.0680
MEAN_ANOMALY   = 244.6641

EPHEMERIS_TYPE = 0
CLASSIFICATION_TYPE = U
NORAD_CAT_ID   = 66017
ELEMENT_SET_NO = 999
REV_AT_EPOCH   = 435
BSTAR          = .30166809E-2
MEAN_MOTION_DOT = .121984E-2
MEAN_MOTION_DDOT = 0

CCSDS_OMM_VERS = 2.0
CREATION_DATE  = 
ORIGINATOR     = 

OBJECT_NAME    = STARLINK-35376
OBJECT_ID      = 2025-232P
CENTER_NAME    = EARTH
REF_FRAME      = TEME
TIME_SYSTEM    = UTC
MEAN_ELEMENT_THEORY = SGP/SGP4

EPOCH          = 2025-11-10T09:02:19.148064
MEAN_MOTION    = 15.49349382
ECCENTRICITY   = .00016621
INCLINATION    = 53.1598
RA_OF_ASC_NODE = 299.8480
ARG_OF_PERICENTER = 75.8513
MEAN_ANOMALY   = 284.2681

EPHEMERIS_TYPE = 0
CLASSIFICATION_TYPE = U
NORAD_CAT_ID   = 66018
ELEMENT_SET_NO = 999
REV_AT_EPOCH   = 514
BSTAR          = .18032802E-2
MEAN_MOTION_DOT = .101297E-2
MEAN_MOTION_DDOT = 0

CCSDS_OMM_VERS = 2.0
CREATION_DATE  = 
ORIGINATOR     = 

OBJECT_NAME    = STARLINK-35382
OBJECT_ID      = 2025-232Q
CENTER_NAME    = EARTH
REF_FRAME      = TEME
TIME_SYSTEM    = UTC
MEAN_ELEMENT_THEORY = SGP/SGP4

EPOCH          = 2025-11-10T22:59:49.602336
MEAN_MOTION    = 15.49378718
ECCENTRICITY   = .00015307
INCLINATION    = 53.1592
RA_OF_ASC_NODE = 297.0788
ARG_OF_PERICENTER = 95.5798
MEAN_ANOMALY   = 264.5386

EPHEMERIS_TYPE = 0
CLASSIFICATION_TYPE = U
NORAD_CAT_ID   = 66019
ELEMENT_SET_NO = 999
REV_AT_EPOCH   = 523
BSTAR          = .21063391E-2
MEAN_MOTION_DOT = .118787E-2
MEAN_MOTION_DDOT = 0

CCSDS_OMM_VERS = 2.0
CREATION_DATE  = 
ORIGINATOR     = 

OBJECT_NAME    = STARLINK-35430
OBJECT_ID      = 2025-232R
CENTER_NAME    = EARTH
REF_FRAME      = TEME
TIME_SYSTEM    = UTC
MEAN_ELEMENT_THEORY = SGP/SGP4

EPOCH          = 2025-11-11T00:00:02.999808
MEAN_MOTION    = 15.39582837
ECCENTRICITY   = .00011338
INCLINATION    = 53.1591
RA_OF_ASC_NODE = 297.0750
ARG_OF_PERICENTER = 93.2589
MEAN_ANOMALY   = 41.2510

EPHEMERIS_TYPE = 0
CLASSIFICATION_TYPE = U
NORAD_CAT_ID   = 66020
ELEMENT_SET_NO = 999
REV_AT_EPOCH   = 443
BSTAR          = .12497695E-2
MEAN_MOTION_DOT = .49856E-3
MEAN_MOTION_DDOT = 0

CCSDS_OMM_VERS = 2.0
CREATION_DATE  = 
ORIGINATOR     = 

OBJECT_NAME    = STARLINK-35432
OBJECT_ID      = 2025-232S
CENTER_NAME    = EARTH
REF_FRAME      = TEME
TIME_SYSTEM    = UTC
MEAN_ELEMENT_THEORY = SGP/SGP4

EPOCH          = 2025-11-10T22:00:00.999936
MEAN_MOTION    = 15.39569204
ECCENTRICITY   = .000143
INCLINATION    = 53.1591
RA_OF_ASC_NODE = 297.5193
ARG_OF_PERICENTER = 104.2956
MEAN_ANOMALY   = 262.1871

EPHEMERIS_TYPE = 0
CLASSIFICATION_TYPE = U
NORAD_CAT_ID   = 66021
ELEMENT_SET_NO = 999
REV_AT_EPOCH   = 435
BSTAR          = .30591798E-2
MEAN_MOTION_DOT = .123763E-2
MEAN_MOTION_DDOT = 0

CCSDS_OMM_VERS = 2.0
CREATION_DATE  = 
ORIGINATOR     = 

OBJECT_NAME    = STARLINK-35340
OBJECT_ID      = 2025-232T
CENTER_NAME    = EARTH
REF_FRAME      = TEME
TIME_SYSTEM    = UTC
MEAN_ELEMENT_THEORY = SGP/SGP4

EPOCH          = 2025-11-11T00:00:02.999808
MEAN_MOTION    = 15.39586755
ECCENTRICITY   = .0001346
INCLINATION    = 53.1596
RA_OF_ASC_NODE = 297.0224
ARG_OF_PERICENTER = 92.9667
MEAN_ANOMALY   = 67.2963

EPHEMERIS_TYPE = 0
CLASSIFICATION_TYPE = U
NORAD_CAT_ID   = 66022
ELEMENT_SET_NO = 999
REV_AT_EPOCH   = 443
BSTAR          = .10836774E-2
MEAN_MOTION_DOT = .43145E-3
MEAN_MOTION_DDOT = 0

CCSDS_OMM_VERS = 2.0
CREATION_DATE  = 
ORIGINATOR     = 

OBJECT_NAME    = STARLINK-35394
OBJECT_ID      = 2025-232U
CENTER_NAME    = EARTH
REF_FRAME      = TEME
TIME_SYSTEM    = UTC
MEAN_ELEMENT_THEORY = SGP/SGP4

EPOCH          = 2025-11-11T00:00:02.999808
MEAN_MOTION    = 15.39588397
ECCENTRICITY   = .00017131
INCLINATION    = 53.1598
RA_OF_ASC_NODE = 296.9708
ARG_OF_PERICENTER = 99.2263
MEAN_ANOMALY   = 86.7694

EPHEMERIS_TYPE = 0
CLASSIFICATION_TYPE = U
NORAD_CAT_ID   = 66023
ELEMENT_SET_NO = 999
REV_AT_EPOCH   = 443
BSTAR          = .11425237E-2
MEAN_MOTION_DOT = .45526E-3
MEAN_MOTION_DDOT = 0

CCSDS_OMM_VERS = 2.0
CREATION_DATE  = 
ORIGINATOR     = 

OBJECT_NAME    = STARLINK-35410
OBJECT_ID      = 2025-232V
CENTER_NAME    = EARTH
REF_FRAME      = TEME
TIME_SYSTEM    = UTC
MEAN_ELEMENT_THEORY = SGP/SGP4

EPOCH          = 2025-11-11T00:00:02.999808
MEAN_MOTION    = 15.42392409
ECCENTRICITY   = .00015291
INCLINATION    = 53.1603
RA_OF_ASC_NODE = 296.8741
ARG_OF_PERICENTER = 92.1733
MEAN_ANOMALY   = 142.0237

EPHEMERIS_TYPE = 0
CLASSIFICATION_TYPE = U
NORAD_CAT_ID   = 66024
ELEMENT_SET_NO = 999
REV_AT_EPOCH   = 443
BSTAR          = -.42939209E-1
MEAN_MOTION_DOT = -.168094E-1
MEAN_MOTION_DDOT = 0

CCSDS_OMM_VERS = 2.0
CREATION_DATE  = 
ORIGINATOR     = 

OBJECT_NAME    = STARLINK-35280
OBJECT_ID      = 2025-232W
CENTER_NAME    = EARTH
REF_FRAME      = TEME
TIME_SYSTEM    = UTC
MEAN_ELEMENT_THEORY = SGP/SGP4

EPOCH          = 2025-11-11T00:00:02.999808
MEAN_MOTION    = 15.39576372
ECCENTRICITY   = .00017997
INCLINATION    = 53.1599
RA_OF_ASC_NODE = 296.9192
ARG_OF_PERICENTER = 92.9991
MEAN_ANOMALY   = 118.7562

EPHEMERIS_TYPE = 0
CLASSIFICATION_TYPE = U
NORAD_CAT_ID   = 66025
ELEMENT_SET_NO = 999
REV_AT_EPOCH   = 437
BSTAR          = .13154435E-2
MEAN_MOTION_DOT = .52505E-3
MEAN_MOTION_DDOT = 0

CCSDS_OMM_VERS = 2.0
CREATION_DATE  = 
ORIGINATOR     = 

OBJECT_NAME    = STARLINK-34812
OBJECT_ID      = 2025-232X
CENTER_NAME    = EARTH
REF_FRAME      = TEME
TIME_SYSTEM    = UTC
MEAN_ELEMENT_THEORY = SGP/SGP4

EPOCH          = 2025-11-10T22:00:00.999936
MEAN_MOTION    = 15.45958641
ECCENTRICITY   = .00013451
INCLINATION    = 53.1598
RA_OF_ASC_NODE = 297.2419
ARG_OF_PERICENTER = 83.3636
MEAN_ANOMALY   = 61.5741

EPHEMERIS_TYPE = 0
CLASSIFICATION_TYPE = U
NORAD_CAT_ID   = 66026
ELEMENT_SET_NO = 999
REV_AT_EPOCH   = 437
BSTAR          = -.46314223E-1
MEAN_MOTION_DOT = -.2040726E-1
MEAN_MOTION_DDOT = 0

CCSDS_OMM_VERS = 2.0
CREATION_DATE  = 
ORIGINATOR     = 

OBJECT_NAME    = STARLINK-35341
OBJECT_ID      = 2025-232Y
CENTER_NAME    = EARTH
REF_FRAME      = TEME
TIME_SYSTEM    = UTC
MEAN_ELEMENT_THEORY = SGP/SGP4

EPOCH          = 2025-11-10T22:00:00.999936
MEAN_MOTION    = 15.39576136
ECCENTRICITY   = .00012432
INCLINATION    = 53.1598
RA_OF_ASC_NODE = 297.0516
ARG_OF_PERICENTER = 95.8719
MEAN_ANOMALY   = 142.3775

EPHEMERIS_TYPE = 0
CLASSIFICATION_TYPE = U
NORAD_CAT_ID   = 66027
ELEMENT_SET_NO = 999
REV_AT_EPOCH   = 442
BSTAR          = .1911538E-2
MEAN_MOTION_DOT = .76722E-3
MEAN_MOTION_DDOT = 0

CCSDS_OMM_VERS = 2.0
CREATION_DATE  = 
ORIGINATOR     = 

OBJECT_NAME    = STARLINK-35339
OBJECT_ID      = 2025-232Z
CENTER_NAME    = EARTH
REF_FRAME      = TEME
TIME_SYSTEM    = UTC
MEAN_ELEMENT_THEORY = SGP/SGP4

EPOCH          = 2025-11-10T22:00:00.999936
MEAN_MOTION    = 15.39578196
ECCENTRICITY   = .00016348
INCLINATION    = 53.1594
RA_OF_ASC_NODE = 297.0007
ARG_OF_PERICENTER = 104.2673
MEAN_ANOMALY   = 159.6946

EPHEMERIS_TYPE = 0
CLASSIFICATION_TYPE = U
NORAD_CAT_ID   = 66028
ELEMENT_SET_NO = 999
REV_AT_EPOCH   = 436
BSTAR          = .28015389E-2
MEAN_MOTION_DOT = .113182E-2
MEAN_MOTION_DDOT = 0

